FLOCK 3P-85             
1 41983U 17008AM  18038.91590988  .00001964  00000-0  84077-4 0  9990
2 41983  97.4693 104.6356 0009939  93.8166 266.4208 15.23957882 54268
FLOCK 3P-79             
1 41984U 17008AN  18038.85181757  .00001032  00000-0  45728-4 0  9990
2 41984  97.4694 104.5669 0009688  93.6527 266.5818 15.23870581 54253
FLOCK 3P-86             
1 41985U 17008AP  18038.91915142  .00001616  00000-0  69905-4 0  9992
2 41985  97.4693 104.6243 0009630  92.7964 267.4375 15.23868602 54253
FLOCK 3P-36             
1 41986U 17008AQ  18038.92119263  .00001651  00000-0  71328-4 0  9995
2 41986  97.4677 104.5384 0009393  90.7275 269.5039 15.23886750 53747
FLOCK 3P-30             
1 41987U 17008AR  18039.17546253  .00001778  00000-0  76534-4 0  9991
2 41987  97.4675 104.8113 0009272  91.4545 268.7754 15.23916331 54254
FLOCK 3P-34             
1 41988U 17008AS  18039.12138629  .00001305  00000-0  57022-4 0  9998
2 41988  97.4673 104.7114 0009415  88.4081 271.8234 15.23881148 53774
FLOCK 3P-35             
1 41989U 17008AT  18038.86226652  .00001722  00000-0  74286-4 0  9997
2 41989  97.4671 104.4427 0009576  88.8559 271.3775 15.23875813 53732
FLOCK 3P-33             
1 41990U 17008AU  18038.85645225  .00002419  00000-0  10310-3 0  9990
2 41990  97.4671 104.4579 0009260  90.0819 270.1479 15.23889211 53731
LEMUR-2-SATCHMO         
1 41991U 17008AV  18038.83724789  .00000984  00000-0  44825-4 0  9996
2 41991  97.4660 104.1571 0009491  92.2920 267.9403 15.23001617 53717
LEMUR-2-MIA-GRACE       
1 41992U 17008AW  18038.90634369  .00001449  00000-0  63652-4 0  9995
2 41992  97.4665 104.3848 0009384  92.1886 268.0425 15.23505883 53735
LEMUR-2-SMITA-SHARAD    
1 41993U 17008AX  18038.94080375  .00001044  00000-0  47136-4 0  9992
2 41993  97.4659 104.3268 0009428  91.6138 268.6178 15.23178408 53738
LEMUR-2-SPIRE-MINIONS   
1 41994U 17008AY  18038.91604130  .00001407  00000-0  61965-4 0  9990
2 41994  97.4662 104.3611 0009435  91.4039 268.8279 15.23463281 53731
LEMUR-2-RDEATON         
1 41995U 17008AZ  18038.80055110  .00001064  00000-0  47925-4 0  9996
2 41995  97.4661 104.2128 0010487 103.2795 256.9612 15.23231476 54394
LEMUR-2-NOGUECORREIG    
1 41996U 17008BA  18038.90181366  .00001484  00000-0  65187-4 0  9997
2 41996  97.4669 104.3969 0010381 103.6286 256.6108 15.23466869 53638
LEMUR-2-JOBANPUTRA      
1 41997U 17008BB  18039.13881605  .00001384  00000-0  60759-4 0  9996
2 41997  97.4671 104.6954 0010358 102.7601 257.4794 15.23596842 53763
LEMUR-2-TACHIKOMA       
1 41998U 17008BC  18039.13950725  .00001033  00000-0  46757-4 0  9990
2 41998  97.4659 104.5224 0010399 102.7466 257.4934 15.23130384 53685
BGUSAT                  
1 41999U 17008BD  18038.90469297  .00001849  00000-0  79281-4 0  9997
2 41999  97.4675 104.5680 0010228 104.4551 255.7822 15.23989183 53737
DIDO-2                  
1 42000U 17008BE  18038.89993096  .00000851  00000-0  39258-4 0  9990
2 42000  97.4655 104.2215 0010390 104.0426 256.1966 15.22915610 53723
FLOCK 3P-49             
1 42001U 17008BF  18038.90952645  .00002213  00000-0  94557-4 0  9995
2 42001  97.4674 104.5451 0009916 104.8290 255.4046 15.23889101 54266
FLOCK 3P-67             
1 42002U 17008BG  18038.90584881  .00002037  00000-0  86810-4 0  9996
2 42002  97.4670 104.5413 0009781 103.9143 256.3183 15.24070391 54422
FLOCK 3P-68             
1 42003U 17008BH  18038.85020517  .00002183  00000-0  93317-4 0  9994
2 42003  97.4670 104.4568 0010023 102.7938 257.4419 15.23890388 54051
FLOCK 3P-41             
1 42004U 17008BJ  18039.16722405  .00000847  00000-0  38077-4 0  9992
2 42004  97.4669 104.7924 0009831 103.8540 256.3792 15.23854082 54294
FLOCK 3P-45             
1 42005U 17008BK  18038.83538811  .00002103  00000-0  89518-4 0  9995
2 42005  97.4671 104.4820 0009697 105.0866 255.1444 15.24081236 54403
FLOCK 3P-48             
1 42006U 17008BL  18038.84218649  .00001489  00000-0  64614-4 0  9997
2 42006  97.4676 104.4828 0009637 105.6106 254.6196 15.23882944 54192
FLOCK 3P-43             
1 42007U 17008BM  18038.91046087  .00000660  00000-0  30440-4 0  9991
2 42007  97.4675 104.5319 0009608 105.9781 254.2515 15.23730604 54420
FLOCK 3P-42             
1 42008U 17008BN  18038.90606878  .00001893  00000-0  81330-4 0  9994
2 42008  97.4669 104.5278 0009639 105.3666 254.8637 15.23886396 54340
FLOCK 3P-61             
1 42009U 17008BP  18038.90499173  .00002170  00000-0  92707-4 0  9992
2 42009  97.4670 104.5368 0009502 107.3146 252.9132 15.23919780 54395
FLOCK 3P-40             
1 42010U 17008BQ  18038.89884852  .00002370  00000-0  10098-3 0  9998
2 42010  97.4663 104.5188 0009489 108.1761 252.0510 15.23918039 53650
FLOCK 3P-16             
1 42011U 17008BR  18038.88774137  .00002341  00000-0  99897-4 0  9995
2 42011  97.4664 104.5370 0009144 108.4774 251.7457 15.23884409 53592
FLOCK 3P-14             
1 42012U 17008BS  18038.82076313  .00001496  00000-0  64824-4 0  9993
2 42012  97.4676 104.4961 0009345 110.6554 249.5686 15.23931853 54209
FLOCK 3P-53             
1 42013U 17008BT  18039.15373013  .00001718  00000-0  74117-4 0  9991
2 42013  97.4662 104.7755 0009132 107.4541 252.7695 15.23872101 54254
FLOCK 3P-54             
1 42014U 17008BU  18039.15699037  .00002191  00000-0  93615-4 0  9999
2 42014  97.4666 104.7920 0009076 108.6703 251.5520 15.23909882 54423
PEASSS                  
1 42015U 17008BV  18039.40422262  .00001119  00000-0  49610-4 0  9997
2 42015  97.4649 105.0340 0008227 108.5813 251.6318 15.23661625 54306
AL-FARABI 1             
1 42016U 17008BW  18038.90283989  .00001280  00000-0  55821-4 0  9993
2 42016  97.4655 104.6483 0008098 110.5971 249.6136 15.23990701 54351
NAYIF-1 (EO-88)         
1 42017U 17008BX  18038.89899933  .00001292  00000-0  56256-4 0  9990
2 42017  97.4654 104.6496 0008071 110.7010 249.5093 15.24011307 54372
FLOCK 3P-23             
1 42018U 17008BY  18039.15569573  .00002806  00000-0  11898-3 0  9999
2 42018  97.4660 104.6265 0010292  86.4933 273.7481 15.23917319 53225
FLOCK 3P-76             
1 42019U 17008BZ  18038.86009738  .00001835  00000-0  78935-4 0  9996
2 42019  97.4696 104.5675 0010059  92.0599 268.1790 15.23881883 54241
FLOCK 3P-69             
1 42020U 17008CA  18038.72719063  .00001624  00000-0  70178-4 0  9999
2 42020  97.4696 104.4376 0009911  91.7328 268.5044 15.23888288 53118
FLOCK 3P-84             
1 42021U 17008CB  18038.86872114  .00002065  00000-0  88394-4 0  9991
2 42021  97.4691 104.5342 0010265  91.0157 269.2256 15.23907651 54250
FLOCK 3P-59             
1 42022U 17008CC  18038.79980152  .00002054  00000-0  87704-4 0  9998
2 42022  97.4670 104.3764 0009675  91.4932 268.7414 15.24008811 53263
FLOCK 3P-32             
1 42023U 17008CD  18038.80764470  .00001713  00000-0  73860-4 0  9993
2 42023  97.4672 104.3695 0009655  88.5760 271.6583 15.23897379 54404
FLOCK 3P-71             
1 42024U 17008CE  18039.15327477  .00001806  00000-0  77712-4 0  9998
2 42024  97.4693 104.7925 0010018  91.6251 268.6134 15.23901662 53322
FLOCK 3P-77             
1 42025U 17008CF  18038.86135402  .00001599  00000-0  69154-4 0  9991
2 42025  97.4694 104.5537 0009949  92.5124 267.7252 15.23891689 54252
FLOCK 3P-80             
1 42026U 17008CG  18039.16929671  .00001351  00000-0  58718-4 0  9995
2 42026  97.4691 104.9017 0009598  92.0618 268.1718 15.23999513 52446
FLOCK 3P-66             
1 42027U 17008CH  18038.91529446  .00001430  00000-0  62161-4 0  9999
2 42027  97.4673 104.5369 0009997 102.3953 257.8403 15.23900737 54373
FLOCK 3P-65             
1 42028U 17008CJ  18038.84776089  .00002104  00000-0  90055-4 0  9991
2 42028  97.4674 104.4737 0009853 103.0024 257.2314 15.23897447 54267
FLOCK 3P-50             
1 42029U 17008CK  18038.91013589  .00001166  00000-0  51281-4 0  9994
2 42029  97.4677 104.5539 0009719 104.4558 255.7758 15.23862870 53592
FLOCK 3P-52             
1 42030U 17008CL  18038.91194318  .00002147  00000-0  91799-4 0  9994
2 42030  97.4673 104.5358 0009755 104.0119 256.2203 15.23911355 54368
FLOCK 3P-46             
1 42031U 17008CM  18039.16972024  .00002146  00000-0  91790-4 0  9991
2 42031  97.4668 104.7930 0009695 104.0942 256.1373 15.23894305 54438
FLOCK 3P-47             
1 42032U 17008CN  18039.17145950  .00002190  00000-0  93616-4 0  9991
2 42032  97.4668 104.7890 0009634 104.4281 255.8026 15.23895537 54289
FLOCK 3P-44             
1 42033U 17008CP  18039.16958459  .00001449  00000-0  63267-4 0  9992
2 42033  97.4675 104.8046 0009737 107.0165 253.2139 15.23718816 53039
FLOCK 3P-64             
1 42034U 17008CQ  18038.90325089  .00002447  00000-0  10419-3 0  9990
2 42034  97.4666 104.5278 0009561 107.2941 252.9343 15.23911423 54418
FLOCK 3P-63             
1 42035U 17008CR  18038.90117718  .00002157  00000-0  92240-4 0  9990
2 42035  97.4666 104.5239 0009504 106.9853 253.2426 15.23899458 52384
FLOCK 3P-62             
1 42036U 17008CS  18039.13505878  .00002049  00000-0  87089-4 0  9990
2 42036  97.4668 104.8315 0009519 107.6223 252.6055 15.24159520 53629
FLOCK 3P-38             
1 42037U 17008CT  18039.16233936  .00002054  00000-0  87949-4 0  9998
2 42037  97.4667 104.7910 0009238 106.9853 253.2397 15.23907180 54403
FLOCK 3P-39             
1 42038U 17008CU  18038.89756254  .00002735  00000-0  11614-3 0  9992
2 42038  97.4662 104.5152 0009491 108.0953 252.1318 15.23894654 54312
FLOCK 3P-15             
1 42039U 17008CV  18038.90232685  .00002094  00000-0  89570-4 0  9997
2 42039  97.4666 104.5231 0009361 107.6156 252.6104 15.23916911 53599
FLOCK 3P-13             
1 42040U 17008CW  18039.16083560  .00001902  00000-0  81954-4 0  9999
2 42040  97.4674 104.8026 0009267 107.7866 252.4382 15.23786182 53624
FLOCK 3P-55             
1 42041U 17008CX  18038.80982080  .00001998  00000-0  85688-4 0  9998
2 42041  97.4669 104.4986 0009006 111.8226 248.3970 15.23889106 54412
